Name,Street,City,State,Zip,Type,Latitude,Longitude
Ace’s Place,1101 Academy Ct Unit 4,Fort Collins,CO,80524,Undisclosed,40.5738399,-105.0473852
Acme Healing Center,1644 County Road 203,Durango,CO,81301,Undisclosed,37.3219931,-107.8517289
Affinity Dispensary,7739 E Colfax Ave,Denver,CO,80220,Undisclosed,39.7402361,-104.8982617
Ajoya,11950 W Colfax Ave,Lakewood,CO,80215,Undisclosed,39.7400564,-105.1323528
Ajoya,1100 W Dillon Rd Unit 3,Louisville,CO,80027,Undisclosed,39.9615569,-105.1661786
Alpenglow Botanicals,765 W Anemone Trail,Dillion,CO,80435,Recreational,39.589598,-106.008068
Altitude the Dispensary,6858 E Evans Ave,Denver,CO,80224,Undisclosed,39.6783736,-104.9087922
Altitude Organic Cannabis Dispensary,817 Little Beaver Trail,Dillon,CO,80435,Recreational,39.6302988,-106.0598898
Altitude Organic Medicine,3840 N Nevada Ave,Colorado Springs,CO,80907,Medical,38.8880004,-104.8191087
Altitude Organic Medicine,2354 E Platte Ave,Colorado Springs,CO,80909,Medical,38.8376981,-104.7844841
Altitude Organic Medicine,523 S Tejon St,Colorado Springs,CO,80903,Undisclosed,38.8264775,-104.8237992
Altitude Organic Medicine,6755 N Academy Blvd,Colorado Springs,CO,80918,Undisclosed,38.9291852,-104.7930105
The Annie’s - a Strainwise Dispensary,135 Nevada St,Black Hawk,CO,80452,Undisclosed,39.799123,-105.513133
Apothecary Farms,3049 Delta Dr,Colorado Springs,CO,80910,Medical,38.7951601,-104.77684
Apothecary Farms,2251 S Broadway,Denver,CO,80210,Undisclosed,39.675782,-104.987681
Apothecary Farms,1917 Santa Fe Dr,Pueblo,CO,81006,Undisclosed,38.2499983,-104.6012742
The Apotheke,2582 S Academy Blvd,Colorado Springs,CO,80916,Medical,38.7943803,-104.7580535
Aroma Dispensary,5433 Quebec St,Commerce City,CO,80022,Recreational,39.795792,-104.903656
Ascend Cannabis Company,3555 S Yosemite St,Denver,CO,80237,Undisclosed,39.6518311,-104.885426
Ascend Cannabis Company,5231 S Santa Fe Dr Unit 100,Littleton,CO,80120,Undisclosed,39.6210591,-105.0155912
Ascend Cannabis Company,10712 W Alameda Ave,Lakewood,CO,80226,Undisclosed,39.7106571,-105.1181927
Backcountry Cannabis,329 Belleview Ave Unit,Crested Butte,CO,81224,Recreational,38.867113,-106.985374
Ballpark Holistic Dispensary,2119 Larimer St,Denver,CO,80205,Undisclosed,39.7541696,-104.991163
Beleaf Wellness Center,327 Main St,San Luis,CO,81152,Recreational,37.2002666,-105.425927
Berkeley Dispensary,5398 Sheridan Blvd,Arvada,CO,80002,Undisclosed,39.799578,-105.0531965
Best Budz,3729 Austin Bluffs Pkwy,Colorado Springs,CO,80918,Undisclosed,38.8909467,-104.7589517
Best Colorado Cannabis,4800 N Lamar St,Wheat Ridge,CO,80033,Undisclosed,39.784307,-105.067339
Best Day Ever,520 E Cooper Ave Unit 202,Aspen,CO,81611,Undisclosed,39.1880743,-106.8180898
Better Green,514 Bent Ave Las,Las Animas,CO,81054,Undisclosed,38.0675234,-103.219808
bgood,80 S Pennsylvania St,Denver,CO,80209,Medical,39.7152517,-104.9812447
bgood,11 W Hampden Ave #102,Englewood,CO,80110,Undisclosed,39.653087,-104.9878264
bgood,11450 Cherokee St,Northglenn,CO,80234,Undisclosed,39.9043869,-104.990855
BioMeds,2301 Rand Ave,Colorado Springs,CO,80905,Medical,38.79913,-104.801304
Blend,198 S Frontage Rd E,Mancos,CO,81328,Recreational,37.216806,-107.85074
Bobby Brown Best  Buds ,506 S Nevada Ave,Colorado Springs,CO,80903,Recreational,38.826628,-104.821842
la Bodega,1270 W Cedar Ave Unit A,Denver,CO,80223,Medical,39.7127783,-105.0035474
Bonfire Cannabis,132 Nevada St,Central City,CO,80247,Recreational,39.7991051,-105.5132025
Bonfire Cannabis,4837 N Washington St Suite 100,Denver,CO,80216,Medical,39.784231,-104.978374
Bonfire Cannabis,15 Colorado Blvd,Idaho Springs,CO,80452,Undisclosed,39.7443268,-105.5327816
Bonfire Cannabis,8 County Road 821,Tabernash,CO,80478,Undisclosed,39.9930433,-105.8445396
Botanico,3054 Larimer St,Denver,CO,80205,Undisclosed,39.7629066,-104.9794172
Breckenridge Organic Therapy,1900 Airport Rd,Breckenridge,CO,80424,Undisclosed,39.5086199,-106.0516365
Briargate Wellness Center,890 Dublin Blvd Unit C,Colorado Springs,CO,80918,Medical,38.9258679,-104.8105933
Boulder Wellness Center,5420 Arapahoe Ave Unit F,Boulder,CO,80303,Undisclosed,40.0141938,-105.227272
Budcardi,1325 S Inca St,Denver,CO,80223,Undisclosed,39.6925382,-104.998129
Buddy Boy,3814 Walnut St,Denver,CO,80205,Undisclosed,39.7703639,-104.9712863
Buddy Boy,4012 W 38th Ave,Denver,CO,80212,Undisclosed,39.7693073,-105.0396774
Buddy Boy,2426 S Federal Blvd,Denver,CO,80219,Undisclosed,39.672634,-105.02497
Buddy Boy,5050 York St,Denver,CO,80216,Undisclosed,39.7881759,-104.959153
Buddy Boy,155 N Federal Blvd,Denver,CO,80219,Undisclosed,39.713346,-105.025007
Buddy Boy,120 S Kalamath,Denver,CO,80223,Undisclosed,39.7143927,-104.9997619
Buddy Boy,777 Umatilla St,Denver,CO,80204,Undisclosed,39.7286468,-105.0124581
*Bud Hut,973 US Hwy 85/87 Suite 100,Walsenburg,CO,81089,Recreational,37.521304,-104.696987
Buku Loud,3079 S Academy Blvd,Colorado Springs,CO,80916,Medical,38.7877016,-104.7547023
Burnie Ganja,3236 Waverly Ln,Colorado Springs,CO,80922,Undisclosed,38.8782334,-104.6933822
C1B True Organics,601 US Hwy 85/87,Walsenburg,CO,81089,Recreational,37.521304,-104.696987
Cabin Cannabis,650 B S 11th,Gunnison,CO,81230,Recreational,38.53842,-106.936052
Callie’s Cannabis,920 W 104th Ave,Northglenn,CO,80234,Undisclosed,39.8850122,-104.9977553
Canna Cabinet,2630 W Pueblo Blvd Unit E,Pueblo,CO,81004,Undisclosed,38.2188076,-104.6415403
Canna City Dispensary,7150 Eudora Drive,Denver,CO,80022,Undisclosed,39.823914,-104.929334
Canna City Dispensary,417 N Commercial St,Trinidad,CO,81082,Recreational,37.1713957,-104.5069807
Canna City Dispensary,102 US HWY 10,Walsenburg,CO,81089,Recreational,37.632075,-104.76732
The Cannabis Depot,2440 N Interstate 25,Pueblo,CO,81008,Recreational,38.3380009,-104.6201045
Cannabis Health Home,401 S Eighth St,Colorado Springs,CO,80905,Undisclosed,38.828147,-104.840736
Cannabis Station,1201 20th St,Denver,CO,80202,Undisclosed,39.7526077,-104.9917111
Cannajuana,155 S Cherokee St,Denver,CO,80223,Medical,39.7136819,-104.9924746
Canna Meds Wellness Center,506 N Chelton Rd,Colorado Springs,CO,80909,Medical,38.8402954,-104.7670088
Cannasseur,41 Precision Dr,Pueblo West,CO,81007,Recreational,38.333847,-104.727828
Cannibicare,1466 Woolsey Heights,Colorado Springs,CO,80915,Medical,38.750926,-104.795019
The Center,6853 Leetsdale Drive,Denver,CO,80224,Undisclosed,39.7004958,-104.9088042
Cherry Peak Dispensary,4601 E Mississippi Ave,Denver,CO,80246,Undisclosed,39.6965797,-104.9404384
Choice Organics,813 Smithfield Dr,Fort Collins,CO,80524,Undisclosed,40.5779514,-105.0035754
The Chronic Factory,150 Rio Grande Blvd,Denver,CO,80223,Medical,39.7185981,-105.0037453
Chronic Therapy,1020 S Broadway,Cortez,CO,81321,Recreational,37.3360515,-108.6016535
Chronic Therapy,10030 W 27th Ave,Wheat Ridge,CO,80215,Recreational,39.7557593,-105.1101047
The Colfax Pot Shop,1500 E Colfax Ave,Denver,CO,80218,Recreational,39.7398694,-104.9693928
Colorado Alternative Healthcare,125 Peach Ave Unit B,Palisade,CO,81526,Recreational,39.1115096,-108.3529536
Colorado Cannabis Connection,4550 S Kipling Pkwy Unit 4,Denver,CO,80127,Undisclosed,39.634011,-105.109826
Colorado Grow Company,965 1/2 Main Ave,Durango,CO,81301,Undisclosed,37.264992,-107.879
Colorado Harvest Company,11002 E Yale Ave,Aurora,CO,80014,Recreational,39.6670498,-104.8598611
Colorado Harvest Company,1178 South Kalamath,Denver,CO,80223,Recreational,39.6953391,-105.0002192
Colorado Harvest Company,1568 S Broadway,Denver,CO,80210,Recreational,39.6881799,-104.9873124
Colorado Weedery 125 Peach,125 Peach Ave Unit C,Palisade,CO,81526,Recreational,39.1115096,-108.3529536
Complete Cannabis,2950 Janitell Rd Unit 125,Colorado Springs,CO,80906,Undisclosed,38.7981066,-104.7942929
Complete Releaf Dispensary,1669 Coal Creek Dr,Lafayette,CO,80026,Recreational,39.9841789,-105.0946275
Cookies,3003 W Northern Ave,Pueblo,CO,81005,Recreational,38.2440938,-104.6461217
Cross Genetics,2440 W Evans Ave,Denver,CO,80219,Medical,39.6785984,-105.0162607
Cross Genetics,4902 Smith Rd,Denver,CO,80216,Undisclosed,39.7756702,-104.9304553
Cross Genetics,6745 W Mississippi Ave,Lakewood,CO,80226,Medical,39.6965991,-105.0700452
Cure Colorado,6200 E Yale Ave,Denver,CO,80222,Undisclosed,39.6673212,-104.9165322
A Cut Above Dispensary,3003 W Northern Ave,Denver,CO,80210,Undisclosed,39.676626,-104.962315
The Dab by Silverpeak,520 E Cooper Ave,Aspen,CO,81611,Recreational,39.1880743,-106.8180898
The Dab by Silverpeak,2119 Larimer St,Denver,CO,80205,Recreational,39.7541696,-104.991163
The Dab by Silverpeak,2748 W Alameda Ave,Denver,CO,80219,Recreational,39.7109545,-105.0217575
The Dab by Silverpeak,1063 Courtesy Rd,Louisville,CO,80027,Recreational,39.9803198,-105.1279293
The Dab by Silverpeak,972 W Dillon Rd Unit B,Louisville,CO,80027,Recreational,39.9603225,-105.1639022
Dabarado,5156 Centennial Blvd,Colorado Springs,CO,80919,Medical,38.905089,-104.8639584
Dabbington,206 Elm Dr Log Lane Village,Log Lane Village,CO,80705,Recreational,40.2696117,-103.8295737
Dalwhinnie Farms,108 S Mill St,Aspen,CO,81611,Medical,39.1905192,-106.8191529
Dank,3835 Elm St,Denver,CO,80207,Undisclosed,39.7698347,-104.9294369
DenRec,2117 Larimer St,Denver,CO,80205,Undisclosed,39.7543709,-104.9911954
Denver Dispensary,4975 Vasquez Blvd,Denver,CO,80216,Undisclosed,39.7912416,-104.9418009
Denver Kush Club,2615 Welton St,Denver,CO,80205,Undisclosed,39.7543271,-104.9790339
Denver Recreational Dispensary,2042 S Bannock St,Denver,CO,80223,Undisclosed,39.6793381,-104.9897442
Denver Recreational Dispensary,2117 Larimer St,Denver,CO,80205,Undisclosed,39.7543709,-104.9911954
Denver Recreational Dispensary,4071 Ute HWY,Longmont,CO,80503,Undisclosed,40.203279,-105.1406382
Diego Pellicer,2849 Alameda Ave,Denver,CO,80219,Undisclosed,39.711229,-105.023197
The Dispensary,1805 Airport Rd,Breckenridge,CO,80424,Undisclosed,39.5075025,-106.0518647
The Dispensary,2501 Colorado Ave Unit 106,Colorado Springs,CO,80904,Undisclosed,38.8471595,-104.8634077
The Dispensary,423 Belleview Ave,Crested Butte,CO,81224,Undisclosed,38.8671255,-106.9837181
The Dispensary,765 West Anemone Trail,Dillon,CO,80435,Undisclosed,39.626931,-106.0614677
The Dispensary,500 West Hwy 50 Unit 101,Gunnison,CO,81230,Undisclosed,38.532212,-106.953438
The Dispensary,5744 Datura St,Littleton,CO,80120,Undisclosed,39.6123946,-105.004331
The Doobie Sisters,695 N Broadway,Cortez,CO,81321,Undisclosed,37.3558088,-108.5899734
Doc’s Apothecary,4080 Globeville Rd,Denver,CO,80216,Recreational,39.7726425,-104.9888514
Doc’s Apothecary,2100 E 112th Ave Unit 5,Northglenn,CO,80233,Undisclosed,39.8995553,-104.9600214
Doctor’s Orders,1406 W 38th Ave,Denver,CO,80211,Medical,39.76911,-105.0032647
Double Black Dispensary,655 Buggy Cir,Carbondale,CO,81623,Undisclosed,39.409181,-107.2208137
Drift,1750 30th St Unit 12,Boulder,CO,80301,Undisclosed,40.0174738,-105.2538668
Drift,5190 S Boulder Rd,Boulder,CO,80303,Undisclosed,39.9856087,-105.2294495
Durango Cannabis Company,28753 US160,Durango,CO,81301,Recreational,37.318364,-107.880367
Durango Organics,1104 E Main St,Cortez,CO,81321,Recreational,37.349157,-108.5714319
Durango Organics,310 Belleview Ave,Crested Butte,CO,81224,Undisclosed,38.8669548,-106.9855177
Durango Organics,72 Suttle St,Durango,CO,81303,Recreational,37.2475386,-107.8764614
Durango Organics,37 CR-232,Durango,CO,81303,Recreational,37.12149,-107.885499
L’Eagle,380 Quivas St,Denver,CO,80223,Undisclosed,39.7223473,-105.0067444
Earl’s Fine Herbs,115 Harrison Ave,Leadville,CO,80461,Recreational,39.2446951,-106.2905111
Eclipse Cannabis Company,933 Alpine Ave Unit 2,Boulder,CO,80304,Recreational,40.0258738,-105.2848987
Elite Organics,804 S College Ave Unit C,Fort Collins,CO,80524,Undisclosed,40.5763751,-105.0767149
Elements Boulder,1534 55th St Boulder,Boulder,CO,80303,Recreational,40.0138182,-105.2248919
Elevated Dispensary,9800 N 119th St,Longmont,CO,80501,Recreational,40.1537089,-105.0737821
Emerald Fields,4182 E Virginia Ave,Glendale,CO,80246,Recreational,39.7071239,-104.9389762
Emerald Fields,27 Manitou Ave,Manitou Springs,CO,80829,Recreational,38.856937,-104.8900608
The Epic Remedy,3995 N Academy Blvd,Colorado Springs,CO,80917,Medical,38.8899711,-104.7564696
The Epic Remedy,1202 E Fillmore St,Colorado Springs,CO,80907,Medical,38.8738299,-104.8043401
The Epic Remedy,2712 E Fountain Blvd,Colorado Springs,CO,80910,Medical,38.8178809,-104.781281
Euflora,710 E Durant Ave,Aspen,CO,81611,Undisclosed,39.1868295,-106.8161798
Euflora,4343 S Buckley Road,Aurora,CO,80013,Undisclosed,39.6373002,-104.7920785
Euflora,6260 S Gun Club Road,Aurora,CO,80016,Undisclosed,39.6025572,-104.7156415
Euflora,4304 Brighton Blvd,Denver,CO,80216,Undisclosed,39.7774174,-104.9695094
Euflora,403 16th St,Denver,CO,80202,Undisclosed,39.7433309,-104.989627
Euflora,250 Main Street,Street Longmont,CO,80501,Undisclosed,40.801555,-105.588841
EverBloom,10185 W 49th Ave,Wheat Ridge,CO,80033,Undisclosed,39.7857131,-105.1119853
The Farm,2801 Iris Ave,Boulder,CO,80301,Recreational,40.036542,-105.257038
The Farm Express,5420 Arapahoe Ave Unit D,Boulder,CO,80303,Recreational,40.0141938,-105.227272
The Farmers Market,9206 E Hampden Ave,Denver,CO,80231,Undisclosed,39.6529764,-104.8809264
Fiddler’s Green Cannabis Dispensary,402 Palomino Trail,Ridgway,CO,81432,Undisclosed,38.1499029,-107.745143
Flower Power Botanicals,1308 Duff Dr,Fort Collins,CO,80524,Undisclosed,40.5903171,-105.0522535
Floyd’s Fine Cannabis,402 Palomino Trail,Ridgway,CO,81432,Recreational,38.1499029,-107.745143
Fountain Medical,510 Rio Vista Suite,Colorado Springs,CO,80917,Medical,38.871533,-104.722592
Franks Farm,715 S Circle Dr,Springs CO,CO,80910,Medical,38.8217118,-104.7801552
Freco Cann,1505 Elm Ave,Canon City,CO,81212,Recreational,38.424791,-105.21293
Fremont County Cannabis,1505 Elm Ave,Canon City,CO,81212,Medical,38.424791,-105.21293
Fresh Baked,2539 Pearl St,Boulder,CO,80302,Recreational,40.021576,-105.2623036
Frosted Leaf,6302 E Colfax Ave,Denver,CO,80220,Undisclosed,39.740064,-104.9148789
Frosted Leaf,445 Federal Blvd,Denver,CO,80204,Undisclosed,39.723604,-105.025234
Frosted Leaf,399 S Harrison St,Denver,CO,80209,Undisclosed,39.7094213,-104.9416554
Frosted Leaf,500 W HWY 50 Suite 102,Gunnison,CO,81230,Undisclosed,38.532212,-106.953438
Ganja Gourmet,1810 S Broadway,Denver,CO,80210,Undisclosed,39.6836807,-104.9874413
Golden Alternative Medicine,511 Orchard Street 2nd floor,Golden,CO,80401,Medical,39.7233264,-105.179687
Golden Meds,329 E Pikes Peak Ave,Colorado Springs,CO,80903,Undisclosed,38.8334515,-104.8185157
Golden Meds,1755 S Broadway,Denver,CO,80210,Undisclosed,39.6847917,-104.9876464
Golden Meds,543 Bryant St,Denver,CO,80204,Undisclosed,39.7243206,-105.0187723
Golden Meds,330 Federal Blvd,Denver,CO,80219,Undisclosed,39.7216035,-105.0250018
Golden Meds,970 S Oneida St,Denver,CO,80224,Undisclosed,39.6991401,-104.908125
Golden Meds,4620 Peoria St,Denver,CO,80239,Undisclosed,39.780238,-104.8469107
Golden Meds,2280 S Quebec St,Denver,CO,80231,Undisclosed,39.6749809,-104.9030935
Golden Meds,1410 S Santa Fe Dr,Denver,CO,80223,Undisclosed,39.6910755,-104.9922031
Golden Meds,2636 Youngfield St,Lakewood,CO,80215,Undisclosed,39.7547316,-105.1420901
Golden Nugget Dispensary,127 Main St Central,Central City,CO,80427,Undisclosed,39.800053,-105.5127805
Good Chemistry,16840 E Iliff Ave,Aurora,CO,80013,Undisclosed,39.6735841,-104.7918423
Good Chemistry,330 E Colfax Ave,Denver,CO,80203,Undisclosed,39.7398823,-104.982565
Good Chemistry,1724 S Broadway,Denver,CO,80210,Undisclosed,39.6852697,-104.9874298
Good Chemistry,2563 15th St #103,Denver,CO,80211,Undisclosed,39.7582671,-105.0113172
Good Meds,8420 W Colfax Ave,Lakewood,CO,80215,Medical,39.7403904,-105.0910718
Good Meds,3431 S Federal Blvd,Englewood,CO,80110,Medical,39.6270464,-105.0254492
Good Weed,601 E Las Vegas St,Colorado Springs,CO,80903,Medical,38.817232,-104.815342
Grant Pharms,1591 E Cheyenne Mountain Blvd,Colorado Springs,CO,80906,Medical,38.7922488,-104.7994196
Green Cross Caregivers,1842 S Parker Rd,Denver,CO,80231,Medical,39.6834727,-104.880655
Green Cross of Cherry Creek,3400 S Oneida Way,Denver,CO,80224,Undisclosed,39.6538807,-104.9083889
Green Depot,2020 S Broadway,Denver,CO,80210,Undisclosed,39.6797313,-104.9870592
Green Dragon,409 E Hyman Ave,Aspen,CO,81611,Undisclosed,39.188968,-106.8196143
Green Dragon,15225 E Sixth Ave,Aurora,CO,80011,Undisclosed,39.72554,-104.81452
Green Dragon,19151 E Quincy Ave,Aurora,CO,80015,Undisclosed,39.6385915,-104.7647885
Green Dragon,1750 30th Street Unit 7,Boulder,CO,80301,Undisclosed,40.0174738,-105.2538668
Green Dragon,1795 Airport Rd Unit A3,Breckenridge,CO,80424,Undisclosed,39.5073685,-106.051869
Green Dragon,930 W Byers Pl,Denver,CO,80223,Undisclosed,39.7121182,-104.9978713
Green Dragon,5130 W Colfax Ave,Denver,CO,80220,Undisclosed,39.740224,-105.0524819
Green Dragon,310 St Paul St,Denver,CO,80206,Undisclosed,39.7213419,-104.9508182
Green Dragon,4103 Sheridan Blvd,Denver,CO,80212,Undisclosed,39.7730769,-105.053348
Green Dragon,1724 S Broadway,Denver,CO,80210,Undisclosed,39.6852697,-104.9874298
Green Dragon,1250 Grant St,Denver,CO,80203,Undisclosed,39.7361068,-104.9829979
Green Dragon,2467 Sheridan Blvd,Edgewater,CO,80214,Undisclosed,39.752343,-105.0537001
Green Dragon,1420 Devereux Rd,Glenwood Springs,CO,81601,Undisclosed,39.5581555,-107.3433393
Green Dragon,2922 S Glen Ave,Glenwood Springs,CO,81601,Undisclosed,39.522248,-107.321649
Green Dragon,119 W Colorado Ave,Telluride,CO,81435,Undisclosed,37.9372902,-107.8110091
Green Dragon,5823 E 128th Avenue,Thornton,CO,80602,Undisclosed,39.9284705,-104.9204227
Green Farms Medical Dispensary,3629 Galley Rd,Colorado Springs,CO,80909,Undisclosed,38.8471602,-104.7607045
Greenfields Dispensary,2038 S Navajo St,Denver,CO,80223,Undisclosed,39.6797382,-105.0039884
Greenfields Dispensary,1798 W Mississippi Ave,Denver,CO,80223,Undisclosed,39.6964026,-105.008329
Green Grass Dispensary,440 Lawrence St,Black Hawk,CO,80422,Undisclosed,39.800638,-105.505333
The Greenery,208 Parker Ave Unit E,Durango,CO,81303,Recreational,37.2348502,-107.8715943
Green Heart,19005 E Quincy Ave,Aurora,CO,80015,Undisclosed,39.6389644,-104.7664399
The Green House,730 S Camino Del Rio,Durango,CO,81301,Undisclosed,37.244357,-107.872261
The Green House,270 Pagosa St,Pagosa Springs,CO,81147,Recreational,37.2688733,-107.0063284
The Green Joint,720 E Durant Ave,Aspen,CO,81611,Recreational,39.1867889,-106.8159137
The Green Joint,1030 Grand Avenue Suite B,Glenwood Springs,CO,81602,Undisclosed,39.5429485,-107.3245855
Green Man Cannabis,7289 E Hampden Ave,Denver,CO,80224,Undisclosed,39.653196,-104.9036547
Green Man Cannabis,1355 Santa Fe Dr,Denver,CO,80204,Undisclosed,39.7376097,-104.999169
Green Sativa,8411 Pecos St Unit H,Federal Heights,CO,80246,Undisclosed,39.8511192,-105.005862
The Green Solution,14301 E Colfax Ave,Aurora,CO,80011,Undisclosed,39.740769,-104.8211076
The Green Solution,106 S Mill St,Aspen,CO,81611,Undisclosed,39.1905234,-106.8191522
The Green Solution,10195 Montview Blvd,Aurora,CO,80010,Undisclosed,39.7477214,-104.869564
The Green Solution,3179 S Peoria Ct,Aurora,CO,80014,Undisclosed,39.6588024,-104.8482665
The Green Solution,350 S Potomac St,Aurora,CO,80012,Undisclosed,39.710117,-104.827872
The Green Solution,19370 E Quincy Ave,Aurora,CO,80015,Undisclosed,39.6379956,-104.7614965
The Green Solution,231 Gregory St,Black Hawk,CO,80422,Undisclosed,39.8014519,-105.4953349
The Green Solution,2601 W Alameda Ave,Denver,CO,80219,Undisclosed,39.7114197,-105.0182049
The Green Solution,6881 Federal Blvd,Denver,CO,80221,Undisclosed,39.7882892,-105.0252004
The Green Solution,4400 Grape St,Denver,CO,80216,Undisclosed,39.7774865,-104.9245339
The Green Solution,4151 E Kentucky Ave,Denver,CO,80246,Undisclosed,39.7002049,-104.9453991
The Green Solution,1995 Wewatta St,Denver,CO,80202,Undisclosed,39.7566395,-104.997935
The Green Solution,6020 W 20th Ave,Edgewater,CO,80214,Undisclosed,39.7475423,-105.0629538
The Green Solution,470 Malley Dr,Northglenn,CO,80233,Undisclosed,39.9029318,-104.9803449
The Green Solution,645 Water St,Silver Plume,CO,80476,Undisclosed,39.6950896,-105.7267467
The Green Solution,409 N Commercial St,Trinidad,CO,81082,Undisclosed,37.1713193,-104.5069508
Green Tree Medicinals,1090 N 2nd St,Berthoud,CO,80513,Undisclosed,40.3124028,-105.0760007
Green Tree Medicinals,5565 Arapahoe Ave Ste G,Boulder,CO,80303,Undisclosed,40.0151539,-105.2236498
Green Tree Medicinals,12626 N 107th St,Longmont,CO,80504,Undisclosed,40.208966,-105.102453
Green Tree Medicinals,10575 Melody Dr Unit 102,Northglenn,CO,80234,Undisclosed,39.8875738,-104.9933714
Green World Express,5233 US HWY 285,Antonito,CO,81120,Recreational,37.0667931,-106.0129012
The Happy Camper,1043 N River Rd,Palisade,CO,81526,Recreational,39.1149569,-108.3274999
Harvest House,211 Peak to Peak Hwy,Nederland,CO,80466,Undisclosed,39.9586788,-105.5110789
Hashish Hut,827 N Main St,Gunnison,CO,81230,Recreational,38.5529023,-106.9274743
Hashish Hut,356 E Pagosa Street,Pagosa Springs,CO,81147,Undisclosed,37.268269,-107.009393
Headmaster Medical Marijuana,319 Bonfoy Ave,Colorado Springs,CO,80909,Undisclosed,38.8379612,-104.7925865
Healing Canna,3692 E Bijou St,Colorado Springs,CO,80909,Medical,38.835838,-104.7613
Healing House,2383 S Downing St,Denver,CO,80210,Recreational,39.6733939,-104.973691
The Healing Treee,3995 E 50th Ave,Denver,CO,80216,Undisclosed,39.7873273,-104.9407712
The Health Center,537 Canyon Blvd,Boulder,CO,80302,Recreational,40.015472,-105.2880107
The Health Center,2777 S Colorado Blvd,Denver,CO,80222,Undisclosed,39.6658439,-104.9410226
The Health Center,1736 Downing St,Denver,CO,80216,Undisclosed,39.7440776,-104.9730732
Helping Hands Cannabis,1021 Pearl St Boulder,Boulder,CO,80302,Undisclosed,40.0175992,-105.282086
Herbal Bliss,842 N Summit Blvd Unit 13,Frisco,CO,80443,Recreational,39.5928612,-106.0941956
Herbal Healing,408 Fillmore St,Colorado Springs,CO,80907,Medical,38.8743043,-104.8145422
Herban Underground,70 N Broadway Unit 50,Denver,CO,80203,Undisclosed,39.7328098,-104.9874073
High Country Healing 4,1330 Garden of the Gods Rd,Colorado Springs,CO,80907,Medical,38.8765872,-104.8833333
High Country Healing,191 Blue River Pkwy Unit 202,Silverthorne,CO,80498,Undisclosed,39.6285798,-106.0709314
High Country Healing,40801 US-6 Unit 5,Vail,CO,81657,Undisclosed,39.630264,-106.414752
High Grade Specialists,608 Cloman Blvd Ste 1,Pagosa Springs,CO,81147,Recreational,37.516737,-105.219908
Higher Grade - Cherry Hills Medical,3480 S Galena St,Denver,CO,80231,Undisclosed,39.654018,-104.868777
Higher Grade - Downtown Recreational ,1269 Elati St,Denver,CO,80204,Undisclosed,39.7365638,-104.9943181
Higher Grade - Highlands Medical,3111 W 38th Ave,Denver,CO,80211,Undisclosed,39.7695967,-105.0280727
Highland Health,1505 Santa Fe Trail,Trinidad,CO,81082,Undisclosed,37.1574061,-104.5118732
High Level Health,970 Lincoln St,Denver,CO,80203,Undisclosed,39.7316169,-104.9860204
High Level Health,1620 Market St,Denver,CO,80202,Undisclosed,39.7499336,-104.9974844
High Level Health,2028 E Colfax Ave,Denver,CO,80206,Undisclosed,39.739911,-104.9630466
High Level Health,1221 County Rd 308,Dumont,CO,80452,Undisclosed,39.763874,-105.601479
High Plains Strainz,2506 Sixth Ave,Greeley,CO,80631,Undisclosed,40.396977,-104.687597
High Plains Strainz,17280 North Frontage Road,Log Lane Village,CO,80705,Undisclosed,40.2667713,-103.8257994
High Plains Strainz,114 1st Street,Sedgwick,CO,80749,Undisclosed,40.9345183,-102.523871
High Q,45 Snowmass Village Mall,Aspen,CO,81611,Recreational,39.169324,-106.776744
High Q,303 Main St,Carbondale,CO,81623,Undisclosed,39.4006042,-107.2101194
High Tops,1022 S Royer St,Colorado Springs,CO,80903,Medical,38.8195171,-104.8154896
High Tops,2306 N Powers Blvd,Colorado Springs,CO,80915,Medical,38.8623621,-104.720353
High Valley Healing,711 W US Hwy 160 Unit B,Alamosa,CO,81101,Medical,37.467184,-105.867273
High Valley Retail Cannabis,315 Main St,Antonito,CO,81120,Recreational,37.074187,-106.0088887
High Valley Retail Cannabis,60250 County Road T,Moffat,CO,81143,Undisclosed,37.9935538,-106.0274389
The Homestead,927 SH-3,Durango,CO,81301,Undisclosed,37.250981,-107.8700051
Igadl,171 Lawrence St,Central City,CO,80427,Recreational,39.800525,-105.5104698
Igadl,2818 Colorado Blvd,Idaho Springs,CO,80452,Recreational,39.7416729,-105.5001327
Igadl,1325 S Public Rd,Lafayette,CO,80026,Recreational,39.9875711,-105.0906369
Igadl,1655 Courtesy Rd,Louisville,CO,80027,Recreational,39.9860986,-105.128243
Igadl,150 N Jefferson St Unit B3,Nederland,CO,80466,Recreational,39.9633034,-105.5112739
Igadl,11919 Washington St,Northglenn,CO,80233,Recreational,39.9129332,-104.97831
Igadl,72399 US-40,Tabernash,CO,80478,Recreational,39.992589,-105.836964
Indispensary,3111 N Stone Ave Unit 100,Colorado Springs,CO,80907,Medical,38.8771716,-104.8153762
Jade Kola,3750 Astrozon Blvd Unit 140,Colorado Springs,CO,80910,Recreational,38.7959993,-104.7598586
The Joint by Cannabis,4745 W 38th Ave,Denver,CO,80212,Undisclosed,39.7695643,-105.048464
JP Wellness,1741 S Academy Blvd,Colorado Springs,CO,80916,Medical,38.8072235,-104.7576416
Karing Kind,5854 Rawhide Ct,Boulder,CO,80302,Recreational,41.66704,-72.66648
Karmaceuticals,4 S Santa Fe Dr,Denver,CO,80223,Undisclosed,39.7164416,-104.9984687
Kaya Cannabis,3937 W Colfax,Denver,CO,80204,Undisclosed,39.74049,-105.0390874
Kaya Cannabis,1075 S Fox,Denver,CO,80223,Undisclosed,39.696888,-104.994519
Kaya Cannabis,12018 W Jewell Ave,Lakewood,CO,80228,Medical,39.682017,-105.1293189
KindCare of Colorado,6617 S College Ave,Fort Collins,CO,80525,Undisclosed,40.4943803,-105.0774982
The Kind Castle,98 Peak to Peak Hwy,Nederland,CO,80466,Undisclosed,39.9604042,-105.5106231
The Kind Castle,248 E 1st St,Parachute,CO,81635,Recreational,39.4539045,-108.051039
Kind Love,4380 E Alameda Ave,Denver,CO,80246,Undisclosed,39.7109478,-104.9364446
Kind Meds,260 Santa Fe Dr,Denver,CO,80223,Medical,39.7202956,-104.998471
Kind Pain Management,2636 Youngfield St,Lakewood,CO,80215,Undisclosed,39.7547316,-105.1420901
Kinfolk Farms,83 Davidson Creek Rd,Durango,CO,81301,Recreational,37.2292436,-107.8254408
Kush Gardens,4550 US-6,De Beque,CO,81630,Undisclosed,39.292409,-108.210688
KrystaLeaves,5301 Vasquez Blvd,Commerce City,CO,80022,Undisclosed,39.7937776,-104.9395528
LaConte’s Clone,105 E Seventh Ave,Denver,CO,80203,Undisclosed,39.727352,-104.986069
Lakeshore Cannabis,2517 Sheridan Blvd,Edgewater,CO,80214,Undisclosed,39.7536774,-105.0533392
Laughing Grass,1110 W Virginia Ave Unit 1,Denver,CO,80223,Recreational,39.7074693,-104.9995618
Leiffa,7063 W Colfax Ave,Lakewood,CO,80214,Medical,39.7401621,-105.0750108
Levels Medical Dispensary,389 Wadsworth Blvd,BLakewood,CO,80226,Undisclosed,39.707537,-105.081562
Levity Wellness,426 W Fillmore St,Colorado Springs,CO,80907,Medical,38.8758339,-104.8287678
Life Flower Dispensary,4960 Leetsdale Drive,Glendale,CO,80246,Undisclosed,39.7085778,-104.929926
Lightshade,16821 E Iliff Ave,Aurora,CO,80013,Recreational,39.6737491,-104.7920714
Lightshade,503 Havana St,Aurora,CO,80010,Recreational,39.7234623,-104.8660225
Lightshade,745 E Sixth Ave,Denver,CO,80203,Recreational,39.725691,-104.978287
Lightshade,12075 40th Ave,Denver,CO,80239,Undisclosed,39.7731327,-104.848483
Lightshade,3950 Holly St,Denver,CO,80207,Undisclosed,39.7717323,-104.922206
Lightshade,5885 E Evans Ave,Denver,CO,80222,Undisclosed,39.678537,-104.9190832
Lightshade,330 S Dayton St,Denver,CO,80247,Undisclosed,39.7083473,-104.8749307
Lightshade,1126 S Sheridan Blvd,Denver,CO,80232,Undisclosed,39.696239,-105.0531154
Lightshade,9364 Federal Blvd,Federal Heights,CO,80260,Undisclosed,39.8663613,-105.0249131
Lit Dispensary,2001 S Broadway,Denver,CO,80210,Undisclosed,39.680203,-104.987677
Lit Dispensary,1630 Federal Blvd,Denver,CO,80204,Undisclosed,39.7430055,-105.024686
LivWell Enlightened Health Marijuana Dispensary,1401 Peoria St,Aurora,CO,80010,Recreational,39.7390625,-104.8474527
LivWell Enlightened Health Marijuana Dispensary,19201 E Colfax Ave,Aurora,CO,80011,Recreational,39.740333,-104.7669953
LivWell Marijuana Dispensary,1015 N Second St,Berthoud,CO,80513,Undisclosed,40.311252,-105.076176
LivWell Marijuana Dispensary,403 N Circle Dr,Colorado Springs,CO,80909,Medical,38.8381602,-104.7757999
LivWell Marijuana Dispensary,570 N Murray Blvd,Colorado Springs,CO,80915,Medical,38.8413395,-104.74814
LivWell Enlightened Health Marijuana Dispensary,3234 N Nevada Ave,Colorado Springs,CO,80907,Medical,38.8781548,-104.8183845
LivWell Marijuana Dispensary,5846 Dahlia St,Commerce City,CO,80022,Recreational,39.8029793,-104.9313026
LivWell Marijuana Dispensary,1819 E Main,Cortez,CO,81321,Recreational,37.348835,-108.563427
LivWell Marijuana Dispensary,432 S Broadway,Denver,CO,80209,Undisclosed,39.7087261,-104.987325
LivWell Marijuana Dispensary,5926 E Colfax Ave,Denver,CO,80220,Undisclosed,39.740062,-104.918636
LivWell Marijuana Dispensary,1941 W Evans Ave,Denver,CO,80223,Undisclosed,39.678723,-105.0102626
LivWell Enlightened Health Marijuana Dispensary,2863 Larimer St,Denver,CO,80205,Recreational,39.7613604,-104.9820577
LivWell Marijuana Dispensary,3955 Oneida St,Denver,CO,80207,Undisclosed,39.7718876,-104.9080087
LivWell Enlightened Health Marijuana Dispensary,1660 Pearl St,Denver,CO,80203,Undisclosed,39.7428441,-104.9796119
LivWell Marijuana Dispensary,6651 Tower Road,Denver,CO,80249,Recreational,39.8169207,-104.7724593
LivWell Marijuana Dispensary,3980 Franklin St,Denver,CO,80205,Undisclosed,39.7725872,-104.968284
LivWell Enlightened Health Marijuana Dispensary,8860 Federal Blvd Ste 66E,Federal Heights,CO,80260,Recreational,39.8573581,-105.0238597
LivWell Marijuana Dispensary,900 N College Ave,Fort Collins,CO,80524,Undisclosed,40.5988505,-105.0760529
LivWell Marijuana Dispensary,2647 Eighth Ave,Garden City,CO,80631,Undisclosed,40.39418,-104.69122
LivWell Marijuana Dispensary,449 Railroad Ave,Marcos,CO,81328,Recreational,37.347145,-108.293924
LivWell Marijuana Dispensary,2565 N I-25 Exit 104,Pueblo,CO,81008,Recreational,37.770987,-104.801748
LivWell Marijuana Dispensary,1239 Southgate Pl,Pueblo,CO,81004,Recreational,38.217382,-104.623381
LivWell Marijuana Dispensary,124 Santa Fe Trail,Trinidad,CO,81082,Recreational,37.1663727,-104.5097605
Little Brown House,1995 S Broadway,Denver,CO,80210,Medical,39.6805176,-104.9879123
The Lodge Cannabis,3944 High St,Denver,CO,80205,Undisclosed,39.7720368,-104.9644357
The Lodge,82 S Federal Blvd,Denver,CO,80219,Undisclosed,39.71493,-105.024985
LoDo Wellness Center,1617 Wazee St,Denver,CO,80202,Undisclosed,39.7516552,-104.9997063
Loud Dispensary,5385 Quebec St,Commerce City,CO,80022,Undisclosed,39.7932506,-104.9036439
LOVA Aurora,19005 E Quincy Ave,Aurora,CO,80015,Undisclosed,39.6389644,-104.7664399
LOVA Downtown,2042 Arapahoe Street,Denver,CO,80205,Undisclosed,39.7520306,-104.9898143
LOVA Colfax,3121 E Colfax Avenue,Denver,CO,80206,Undisclosed,39.7404078,-104.950598
LOVA Sheridan,446 Sheridan Boulevard,Denver,CO,80226,Undisclosed,39.723246,-105.0529008
LOVA Edgewater,2045 Sheridan Boulevard,Edgewater,CO,80214,Undisclosed,39.7487511,-105.0536559
Lucky Monkey Buds,137 W Cedar St,Trinidad,CO,81082,Recreational,37.1708477,-104.5075388
M&M,422 N Commercial St,Trinidad,CO,81082,Recreational,37.1715029,-104.506801
Maggie’s Farm,3055 E US Hwy 50,Canon City,CO,81212,Medical,38.447019,-105.19761
Maggie’s Farm,818 E Fillmore,Colorado Springs,CO,80907,Undisclosed,38.8743618,-104.8095212
Maggie’s Farm,1420 S Nevada Ave,Colorado Springs,CO,80905,Undisclosed,38.8136622,-104.8225312
Maggie’s Farm,141 Manitou Ave Hwy 24,Manitou Springs,CO,80829,Undisclosed,38.858357,-104.895638
Maggie’s Farm,1400 Santa Fe Dr,Pueblo,CO,81006,Undisclosed,38.245592,-104.583711
Maggie’s Farm,4803 North I-25,Pueblo,CO,81008,Undisclosed,37.059855,-104.523207
Maggie’s Farm,74 N Component Dr Suite 170,Pueblo West,CO,81007,Undisclosed,38.350002,-104.722755
Magic City Cannabis,3819 Quentin St,Denver,CO,80239,Medical,39.7697633,-104.8450924
Magnolia Road Cannabis,1750 30th St,Boulder,CO,80301,Undisclosed,40.0174738,-105.2538668
Magnolia Road Cannabis,413 N Commercial St,Trinidad,CO,81082,Undisclosed,37.1713575,-104.5069657
Maikoh Holistics,2750 Glenwood Dr Unit 8,Boulder,CO,80304,Recreational,40.0323665,-105.2597227
Makena,2568 S Broadway Ste 5703,Denver,CO,80210,Undisclosed,39.6700836,-104.987477
Mammoth Farms,755 S Federal Blvd,Denver,CO,80219,Undisclosed,39.7029123,-105.0254639
Marquis Cannabis,1909 Broadway St,Boulder,CO,80302,Undisclosed,40.0173803,-105.2798138
Mary Jane’s House,3899 Quentin St,Denver,CO,80239,Recreational,39.770941,-104.844861
Meadows - A Neighborhood Dispensary,2215 E Mississippi Ave,Denver,CO,80210,Undisclosed,39.6966651,-104.961455
Medicine Man,1901 S Havana St,Aurora,CO,80014,Undisclosed,39.6811056,-104.8660541
Medicine Man,4750 Nome St,Denver,CO,80239,Undisclosed,39.7836154,-104.8520906
Medicine Man,500 E Rogers Road,Longmont,CO,80501,Undisclosed,40.1614289,-105.0812342
Medicine Man,130 W 84th Ave,Thornton,CO,80260,Undisclosed,39.8484863,-104.9888001
Mighty Tree,2268 S Delaware St,Denver,CO,80223,Undisclosed,39.6754818,-104.9920287
Mighty Tree,4755 Lipan St,Denver,CO,80211,Medical,39.7824882,-105.0017951
Mile High Dispensary,1350 S Sheridan Blvd Unit 1 & 2,Denver,CO,80232,Undisclosed,39.692173,-105.053134
Mile High Green,852 N Broadway,Denver,CO,80203,Undisclosed,39.729815,-104.987328
Mile High Wellness,2291 S Kalamath St,Denver,CO,80223,Undisclosed,39.6751098,-105.0007235
Mountain Annie’s,157 US-550,Ridgway,CO,81432,Undisclosed,38.1525732,-107.750037
Mountain Medicinals Wellness,2313 Colorado Blvd,Idaho Springs,CO,80452,Recreational,39.7446641,-105.5339435
Native Roots Dispensary,308 S Hunter St,Aspen,CO,81611,Undisclosed,39.1882216,-106.817181
Native Roots Dispensary,41290 US-6,Avon,CO,81620,Undisclosed,39.6205543,-106.469629
Native Roots Dispensary,1146 Pearl St,Boulder,CO,80302,Undisclosed,40.0177033,-105.280149
Native Roots Dispensary,1003 N Academy Blvd,Colorado Springs,CO,80909,Undisclosed,38.8475719,-104.757567
Native Roots Dispensary,3660 Austin Bluffs Pkwy,Colorado Springs,CO,80918,Undisclosed,38.8906273,-104.7581083
Native Roots Dispensary,2209 W 32nd Ave,Denver,CO,80211,Undisclosed,39.7622318,-105.0131405
Native Roots Dispensary,2645 S Santa Fe,Denver,CO,80223,Undisclosed,39.668368,-104.996467
Native Roots Dispensary,7050 Tower Road,Denver,CO,80249,Undisclosed,39.8244547,-104.7717958
Native Roots Dispensary,5610 W 20th Ave,Edgewater,CO,80214,Undisclosed,39.7475532,-105.0581482
Native Roots Dispensary,861 Summit Blvd,Frisco,CO,80443,Undisclosed,39.5859127,-106.0945112
Native Roots Dispensary,7870 W Quincy Ave,Littleton,CO,80123,Undisclosed,39.6382373,-105.084801
Native Roots Dispensary,19 S Sunset St,Longmont,CO,80501,Undisclosed,40.1583926,-105.1214422
Native Roots Dispensary,850 Little Beaver Trail,Silverthorne,CO,80948,Undisclosed,39.636292,-106.072219
Native Roots Dispensary,3140 Santa Fe Trail,Trinidad,CO,81082,Undisclosed,37.1625198,-104.5117745
Natural Alternatives for Health,6712 S College Ave,Fort Collins,CO,80525,Undisclosed,40.4930146,-105.0769588
Nature’s Gift Shop,148 E Assembly Dr,Pueblo,CO,81007,Undisclosed,38.340488,-104.736804
Nature’s Herbs and Wellness,522 27th St,Greeley,CO,80631,Undisclosed,40.3942101,-104.6630567
Nature’s Herbs and Wellness,540 27th St,Garden City,CO,80631,Undisclosed,40.3944806,-104.6866871
Nature’s Medicine,230 W 16th St,Salida,CO,81201,Recreational,38.5245692,-106.0053735
NuVue Pharma,4740 Dillon Dr,Pueblo,CO,81008,Undisclosed,38.317696,-104.6118152
Oasis Cannabis Superstore,6359 E Evans Ave,Denver,CO,80222,Undisclosed,39.6787321,-104.9145331
Oasis Cannabis Superstore,5440 W 44th Ave,Mountain View,CO,80212,Undisclosed,39.7765226,-105.0560465
OG Medicinals,4995 Lima St,Denver,CO,80239,Undisclosed,39.7878023,-104.857026
Options Medical Center,9085 W 44th Ave,Wheat Ridge,CO,80033,Undisclosed,39.778158,-105.098401
Options Recreational Dispensary,5290 Arapahoe Ave Unit J,Boulder,CO,80303,Undisclosed,40.0141266,-105.2296323
Organic Alternatives - Recreational & Medical Marijuana Dispensary,346 E Mountain Ave,Fort Collins,CO,80524,Undisclosed,40.5870952,-105.0730597
Organix,1795 Airport Rd Unit A2,Breckenridge,CO,80424,Undisclosed,39.510148,-106.052019
The Other Place is Greener,466 W Main St,Trinidad,CO,81082,Recreational,37.1669529,-104.5088044
Palmer Lake Wellness,855 Highway 105,Palmer Lake,CO,80133,Medical,39.1183145,-104.9110613
The Peaceful Choice,7464 Arapahoe Rd,Boulder,CO,80303,Medical,40.0145433,-105.1788976
Peak Dispensary,260 Broadway St,Denver,CO,80203,Undisclosed,39.7328098,-104.9874073
Peak Dispensary,140 Railroad St,Sedgwick,CO,80749,Undisclosed,40.93317,-102.5259578
Pig ‘N’ Whistle,4801 W Colfax Ave,Denver,CO,80204,Undisclosed,39.7406439,-105.0489717
Pikes Peak Cannabis Caregivers,3715 Drennan Rd,Colorado Springs,CO,80910,Medical,38.7816224,-104.7585924
PotCo Dispensary,11101 E 51st Ave,Denver,CO,80239,Medical,39.7906535,-104.8586246
Prohibition Herb,1185 Camino del Rio,Durango,CO,81301,Recreational,37.276761,-107.881718
Pueblo West Organics,609 E Enterprise Dr,Pueblo,CO,81007,Recreational,38.3289224,-104.7178382
Pure Harvest Cannabis,1077 CR-308,Dumont,CO,80436,Recreational,39.7654763,-105.605962
Pure Marijuana Dispensary,505 W 40th Ave,Denver,CO,80215,Undisclosed,39.771809,-104.9938517
Pure Marijuana Dispensary,1133 Bannock St,Denver,CO,80204,Undisclosed,39.7343595,-104.990354
Pure Marijuana Dispensary,5702 E Colfax,Denver,CO,80220,Undisclosed,39.740064,-104.921645
Pure Marijuana Dispensary,4571 Ivy St,Denver,CO,80216,Undisclosed,39.7797903,-104.9201432
Pure Marijuana Dispensary,2553 Sheridan Boulevard,Edgewater,CO,80214,Undisclosed,39.754027,-105.0536213
Quality Choice Dispensaries,2398 E Boulder St,Colorado Springs,CO,80909,Medical,38.8385522,-104.7828918
Quality Choice Dispensaries,1905 N Academy Blvd,Colorado Springs,CO,80909,Medical,38.8598667,-104.7574428
Reefer Madness,4401 E 46th Ave Unit B,Denver,CO,80216,Undisclosed,39.780559,-104.934751
The Retreat - a Strainwise Dispensary,2420 S Colorado Blvd,Denver,CO,80222,Undisclosed,39.6725348,-104.9405939
The Ridge - a Strainwise Dispensary,10185 W 49th Ave,Wheat Ridge,CO,80033,Undisclosed,39.7857131,-105.1119853
RiNo Supply Company,3100 Blake St,Denver,CO,80205,Undisclosed,39.7645213,-104.9807579
River Rock Cannabis,990 W 6th Ave,Denver,CO,80204,Undisclosed,39.7256249,-104.9998855
River Rock Cannabis,4935 York St,Denver,CO,80216,Undisclosed,39.7859276,-104.9593869
Rocky Farms,1709 Swink Ave,Rocky Ford,CO,81067,Undisclosed,38.0503815,-103.7094306
Rocky Mountain Blaze,78 Precision Dr,Pueblo West,CO,81007,Undisclosed,38.335732,-104.727007
Rocky Mountain Cannabis,183 W Alameda Ave,Denver,CO,80223,Undisclosed,39.7114502,-104.9919315
Rocky Mountain Cannabis,420 Brontosaurus Blvd,Dinosaur,CO,81610,Recreational,40.2450736,-109.0045824
Rocky Mountain Cannabis,228 Byers Ave,Fraser,CO,80442,Undisclosed,39.9452945,-105.8159995
Rocky Mountain Cannabis,901 W New York Ave,Gunnison,CO,81230,Undisclosed,38.543197,-106.937586
Rocky Mountain Cannabis,153 N Highway 550,Ridgway,CO,81432,Recreational,38.085712,-107.704244
Rocky Mountain Cannabis,614 Arizona Ave,Trinidad,CO,81082,Undisclosed,37.1735451,-104.5086716
Rocky Mountain High Dispensary,615 Buggy Circle Unit D,Carbondale,CO,81623,Recreational,39.409005,-107.2206395
Rocky Mountain High Dispensary,1201 20th Street,Denver,CO,80202,Recreational,39.7526077,-104.9917111
Rocky Mountain High Dispensary,6666 E Stapleton South Drive,Denver,CO,80216,Recreational,39.777979,-104.922292
Rocky Mountain High Dispensary,1233 W Alameda Ave,Denver,CO,80223,Recreational,39.7112625,-105.0022635
Rocky Mountain High Dispensary,1536 Wazee St,Denver,CO,80202,Undisclosed,39.7505924,-105.0006884
Rocky Mountain High Dispensary,120 East 36th Street,Durango,CO,81301,Recreational,37.3047649,-107.8670278
Rocky Mountain High Dispensary,305 Jody Ct,Montrose,CO,81401,Medical,38.528244,-107.9321968
Rocky Road,2489 S Academy Blvd,Colorado Springs,CO,80910,Medical,38.7979118,-104.7576729
Rocky Road,3901 E 112th Ave Unit G,Thornton,CO,80233,Undisclosed,39.8994482,-104.9413092
Rocky Road Remedies,1712 S Chambers Rd,Aurora,CO,80017,Undisclosed,39.6853654,-104.8097885
Roll Up Dispensary,4500 Washington St,Denver,CO,80216,Undisclosed,39.7786574,-104.9787511
Roots RX,40690 Hwy 6,Avon,CO,81620,Recreational,39.622741,-106.484125
Roots RX,400 E Hyman Unit A102,Aspen,CO,81611,Recreational,39.1900656,-106.8245768
Roots RX,165 Southside Drive,Basalt,CO,81611,Recreational,39.3632554,-107.0372127
Roots RX,210 Edwards Village Blvd,Edwards,CO,81620,Recreational,39.6433726,-106.596893
Roots RX,1198 B N Main,Gunnison,CO,81230,Recreational,38.555258,-106.926906
Roots RX,145 Front St,Leadville,CO,80461,Recreational,39.240585,-106.300497
Seattle Marijuana Dispensary,7289 E Hampden Ave,Denver,CO,80224,Undisclosed,39.653196,-104.9036547
Seed & Smith,5070 Oakland St,Denver,CO,80239,Undisclosed,39.7898678,-104.8502068
Serene Wellness,79025 US-40 Unit 5&6,Granby,CO,80482,Medical,39.408708,-105.324945
The Shelter - a Strainwise Dispensary,4095 Jackson St,Denver,CO,80216,Undisclosed,39.773705,-104.9433607
Silver Stem Fine Cannabis,5275 Quebec St Unit 105,Commerce City,CO,80022,Recreational,39.7922672,-104.9038301
Silver Stem Fine Cannabis,8151 E Colfax Ave,Denver,CO,80220,Undisclosed,39.7403083,-104.893082
Silver Stem Fine Cannabis,3702 W Quincy Ave,Denver,CO,80236,Undisclosed,39.6384406,-105.0360613
Silver Stem Fine Cannabis,2800 W Hampden Ave,Englewood,CO,80110,Recreational,39.653176,-104.9987553
Silver Stem Fine Cannabis,511 Zerex St,Fraser,CO,80442,Recreational,39.9434451,-105.8112687
Silver Stem Fine Cannabis,1086 W Littleton Blvd,Littleton,CO,80120,Recreational,39.6129344,-105.0002029
Silver Stem Fine Cannabis,1 W 1st St,Nederland,CO,80466,Recreational,39.9620195,-105.5106386
Simply Pure Denver Dispensary,2000 W 32nd Ave,Denver,CO,80211,Recreational,39.7618722,-105.0113943
Smokey's 420 House,5740 S College Ave,Fort Collins,CO,80525,Undisclosed,40.5068875,-105.0768224
Smokey’s 420 House,2515 Seventh Ave,Greeley,CO,80631,Undisclosed,40.396856,-104.689776
Smokin Gun Apothecary,492 S Colorado Blvd,Glendale,CO,80246,Undisclosed,39.7077895,-104.940226
Solace Meds,301 Smokey St Unit A,Fort Collins,CO,80525,Undisclosed,40.5064281,-105.0742571
Solace Meds,4845 N Van Gordon St,Wheat Ridge,CO,80033,Undisclosed,39.784556,-105.135583
Soma Colorado,423 Belleview Ave,Crested Butte,CO,81224,Recreational,38.8671255,-106.9837181
Spark Dispensary,3900 E 48th Ave,Denver,CO,80216,Recreational,39.7836919,-104.9419116
The Spot 420,453 N Commercial St,Trinidad,CO,81082,Recreational,37.1717337,-104.5071278
The Spring,15 Colorado Blvd,Idaho Springs,CO,80452,Recreational,39.7443268,-105.5327816
Standing Akimbo,3801 Jason St,Denver,CO,80211,Medical,39.7694321,-104.9995987
Star Buds Recreational Marijuana Dispensary,14655 E Arapahoe Rd,Aurora,CO,80016,Undisclosed,39.595637,-104.8185486
Star Buds Recreational Marijuana Dispensary,10100 E Montview Blvd,Aurora,CO,80010,Undisclosed,39.7471232,-104.8701981
Star Buds Recreational Marijuana Dispensary,5844 Dahlia St,Commerce City,CO,80022,Undisclosed,39.8029479,-104.9313073
Star Buds Recreational Marijuana Dispensary,4690 Brighton Blvd,Denver,CO,80216,Undisclosed,39.781709,-104.9665647
Star Buds Recreational Marijuana Dispensary,1451 Cortez St,Denver,CO,80221,Undisclosed,39.831953,-105.005903
Star Buds Recreational Marijuana Dispensary,1640 E Evans Ave,Denver,CO,80210,Undisclosed,39.6784042,-104.9682384
Star Buds Recreational Marijuana Dispensary,5238 W 44th Ave,Denver,CO,80212,Undisclosed,39.776569,-105.0524011
Star Buds Recreational Marijuana Dispensary,420 Bent Ave,Las Animas,CO,81054,Undisclosed,38.0686313,-103.2197909
Star Buds Recreational Marijuana Dispensary,7521 Ute Hwy,Longmont,CO,80503,Undisclosed,40.203279,-105.1406382
Star Buds Recreational Marijuana Dispensary,1156 W Dillon Rd,Louisville,CO,80027,Undisclosed,39.9606744,-105.1668223
Star Buds Recreational Marijuana Dispensary,6924 N 79th St,Niwot,CO,80503,Undisclosed,40.1287909,-105.1689655
Star Buds Recreational Marijuana Dispensary,611 E 6th St,Ordway,CO,81063,Undisclosed,38.2216324,-103.754705
Star Buds Recreational Marijuana Dispensary,30899 US 50 Business,Pueblo,CO,81006,Undisclosed,38.2449139,-104.4977873
Star Buds Recreational Marijuana Dispensary,4305 Thatcher Ave,Pueblo,CO,81005,Undisclosed,38.258452,-104.665912
Star Buds Recreational Marijuana Dispensary,428 S McCulloch Blvd,Pueblo West,CO,81007,Undisclosed,38.31907,-104.7488765
Star Buds Recreational Marijuana Dispensary,1315 Elm Ave,Rocky Ford,CO,81067,Undisclosed,38.050972,-103.7121578
Star Buds Recreational Marijuana Dispensary,9000 N Federal Blvd,Westminster,CO,80260,Undisclosed,39.859888,-105.024982
The Station,1701 Elm Ave Rocky Ford,Rocky Ford,CO,81067,Recreational,38.0489337,-103.7096208
Stellar Cannabis Company,1395 S Sheridan Blvd,Lakewood,CO,80232,Medical,39.6889078,-105.0532828
Sticky Fingerz,3954 Williams St,Denver,CO,80205,Undisclosed,39.7723732,-104.9656898
Stone Dispensary,4820 Morrison Road,Denver,CO,80219,Undisclosed,39.6992645,-105.0487374
Strawberry Fields Cannabis,3435 S Yosemite St,Denver,CO,80231,Recreational,39.6547608,-104.8851018
Strawberry Fields Cannabis,909 Country Road 308,Dumont,CO,80436,Recreational,39.765723,-105.61112
Strawberry Fields Cannabis,2285 N Interstate 25,Pueblo,CO,81008,Recreational,38.3380009,-104.6201045
Strawberry Fields Cannabis,4116 Nature Center Rd,Pueblo,CO,81003,Recreational,38.2733858,-104.6648238
Strawberry Fields Cannabis,116 Santa Fe Trail,Trinidad,CO,81082,Recreational,37.1664085,-104.5097427
Sugarloaf Dispensary,411 N Commercial St,Trinidad,CO,81082,Recreational,37.1713384,-104.5069583
Telluride Bud Company,3473 Main Avenue,Durango,CO,81301,Recreational,37.3035885,-107.8692269
Telluride Bud Company,135 S Spruce St,Telluride,CO,81435,Recreational,37.9362875,-107.8101447
Terps Dispensary,1000 W Fillmore St #105,Colorado Springs,CO,80907,Medical,38.8764509,-104.8390225
Terps Dispensary,38 N Silicon Dr,Pueblo,CO,81007,Recreational,38.330512,-104.716068
Terrapin Care Station,11091 E Mississippi Ave,Aurora,CO,80012,Recreational,39.6970926,-104.8595499
Terrapin Care Station,11900 E 33rd Ave,Aurora,CO,80010,Recreational,39.7632007,-104.8495745
Terrapin Care Station,1795 Folsom St,Boulder,CO,80302,Recreational,40.0171972,-105.2630855
Terrapin Care Station,5370 Manhattan Cir #104,Boulder,CO,80303,Undisclosed,39.9848551,-105.2274969
Terrapin Care Station,1 Broadway #A150,Denver,CO,80203,Recreational,39.7169093,-104.9877557
Terrapin Care Station,650 20th Ave,Longmont,CO,80501,Recreational,40.1942077,-105.1033406
Three Rivers,1714 Santa Fe Dr,Pueblo,CO,81006,Undisclosed,38.2499983,-104.6012742
Three Rivers,83 N Magneto Dr,Pueblo,CO,81007,Undisclosed,38.335297,-104.724494
Today’s Health Care,975 W Fillmore St,Colorado Springs,CO,80907,Undisclosed,38.8762841,-104.8392531
Trees Dispensary,5005 S Federal Blvd,Englewood,CO,80110,Undisclosed,39.6255845,-105.0259317
Trill Alternatives,1537 Pearl St Unit B,Boulder,CO,80302,Recreational,40.0190262,-105.275154
Trinidad’s Higher Calling U,1000 Independence Rd,Trinidad,CO,81082,Undisclosed,37.1908155,-104.4966271
Tumbleweed Dispensary,304 Hwy 133,Carbondale,CO,81623,Recreational,39.410218,-107.221412
Tumbleweed Dispensary,316 W Victory Way,Craig,CO,81625,Recreational,40.514148,-107.5510454
Tumbleweed Dispensary,2185 24 1/2 Rd,De Beque,CO,81630,Recreational,39.287283,-108.225194
Tumbleweed Dispensary,12 Eagle Park Dr,Eagle,CO,81631,Recreational,39.662886,-106.8195807
Tumbleweed Dispensary,57 Edwards Access Rd Suite 20,Edwards,CO,81632,Recreational,39.645061,-106.5937367
Tumbleweed Dispensary,842 N Summit Blvd Unit 13,Frisco,CO,80443,Recreational,39.5928612,-106.0941956
Tumbleweed Dispensary,150 S Columbine Ct Suite 100,Parachute ,CO,81635,Recreational,39.4531515,-108.0459798
Tumbleweed Dispensary,2093 Curve Plaza 103,Steamboat Springs,CO,80487,Recreational,40.499787,-106.856965
TweedLeaf,5565 Arapahoe Ave,Boulder,CO,80303,Undisclosed,40.0151539,-105.2236498
TweedLeaf,5495 N Academy Blvd,Colorado Springs,CO,80918,Undisclosed,38.9073881,-104.7831342
TweedLeaf,1602 W Colorado Ave,Colorado Springs,CO,80904,Undisclosed,38.8398803,-104.8498116
The Underground Station,439 N Commercial St,Trinidad,CO,81082,Undisclosed,37.1716032,-104.5070683
Universal Herbs,800 Park Ave W,Denver,CO,80205,Undisclosed,39.7524195,-104.9849471
Urban Dispensary,2675 W 38th Ave,Denver,CO,80211,Undisclosed,39.7695329,-105.020324
US Marijuana Dispensaries,19370 E Quincy Ave,Aurora,CO,80015,Undisclosed,39.6379956,-104.7614965
Verde Natural Marijuana Dispensary,302 Pearl St,Boulder,CO,80302,Recreational,40.0151476,-105.2913816
Verde Natural Marijuana Dispensary,5101 E Colfax Ave,Denver,CO,80220,Undisclosed,39.740218,-104.928498
Verde Natural Marijuana Dispensary,302 Pearl St,Boulder,CO,80302,Recreational,40.0151476,-105.2913816
Verts Neighborhood Dispensary,1205 W Elizabeth St,Fort Collins,CO,80521,Undisclosed,40.5743684,-105.0978292
The Village Green Society,2043 16th St,Boulder,CO,80302,Recreational,40.0197699,-105.2753688
Washington Medical Dispensary,4837 Washington St Suite 100,Denver,CO,80216,Undisclosed,39.7845029,-104.97855
Wicked Weed Dispensary,114 E Second St,Ordway,CO,81063,Undisclosed,38.216282,-103.756408
Wise Cannabis,21950 US-285,Fairplay,CO,80440,Recreational,39.2110035,-105.9944185
Wolfpac Cannabis,74 Federal Blvd,Denver,CO,80219,Undisclosed,39.7177993,-105.0250012
Wolfpac Cannabis,2420 S Colorado Blvd,Denver,CO,80222,Medical,39.6725348,-104.9405939
Wolfpac Cannabis,749 E Enterprise Drive,Pueblo,CO,81007,Recreational,38.3276058,-104.7120965
Xclusive Cannabis,15200 E 6th Ave,Aurora,CO,80011,Recreational,39.7250311,-104.8124222
Xclusive Cannabis,7200 Smith Road,Denver,CO,80207,Recreational,39.7753959,-104.9422916
Xclusive Cannabis,9462 Federal Blvd,Federal Heights,CO,80260,Recreational,39.8577732,-105.0249517
Yuma Way Cannabis Co,5389 Sheridan Boulevard,Arvada,CO,80012,Recreational,39.799578,-105.0531965
Yuma Way Cannabis Co,7150 Eudora Dr,Commerce City,CO,80022,Recreational,39.825802,-104.928019
Yuma Way Cannabis Co,4501 E Mississippi Ave,Denver,CO,80246,Undisclosed,39.6967151,-104.9275811
Yuma Way Cannabis Co,1136 Yuma Ct,Denver,CO,80204,Recreational,39.7342974,-105.0143781
Yuma Way Cannabis Co,900 S Hover St Unit A,Longmont,CO,80501,Undisclosed,40.1520389,-105.1300734
Zengold’s,5739 Bueno Dr,Fort Collins,CO,80525,Medical,40.5085577,-105.0757221
